OBJECT_NAME,OBJECT_ID,EPOCH,MEAN_MOTION,ECCENTRICITY,INCLINATION,RA_OF_ASC_NODE,ARG_OF_PERICENTER,MEAN_ANOMALY,EPHEMERIS_TYPE,CLASSIFICATION_TYPE,NORAD_CAT_ID,ELEMENT_SET_NO,REV_AT_EPOCH,BSTAR,MEAN_MOTION_DOT,MEAN_MOTION_DDOT
CHUANGXIN 1-02 (CX-1-02),2008-056B,2026-07-08T23:39:39.330432,14.30156924,.00154966,98.6133,216.0346,77.4227,282.8687,0,U,33434,999,92173,-.47823936E-4,-.168E-5,0
STARS (KUKAI),2009-002G,2026-07-08T19:49:04.943424,14.95904662,.00101523,98.1555,138.0201,96.6355,263.6020,0,U,33498,999,94171,.16140509E-3,.1744E-4,0
KKS-1 (KISEKI),2009-002H,2026-07-08T21:54:31.193856,14.83179264,.00069311,98.1179,112.6994,211.0976,148.9827,0,U,33499,999,93941,.11934603E-3,.918E-5,0
UK-DMC 2,2009-041C,2026-07-08T22:02:16.711872,14.76088045,.00013837,97.8862,324.3571,100.7718,259.3648,0,U,35683,999,90977,.51104638E-4,.303E-5,0
OCEANSAT-2,2009-051A,2026-07-08T22:21:04.554144,13.99657180,.00169252,98.2318,174.6120,171.6747,188.4704,0,U,35931,999,88237,-.92493727E-4,-.173E-5,0
SWISSCUBE,2009-051B,2026-07-08T04:08:27.012768,14.62521876,.00074785,98.4017,97.4251,138.1087,222.0687,0,U,35932,999,89222,.15442235E-3,.734E-5,0
BEESAT-1,2009-051C,2026-07-08T16:07:48.536256,14.61755226,.00057337,98.3944,97.5236,147.2714,212.8843,0,U,35933,999,89232,.12965586E-3,.597E-5,0
ITUPSAT1,2009-051E,2026-07-08T13:04:29.830080,14.60472478,.00076108,98.4027,96.5634,162.4704,197.6760,0,U,35935,999,89185,.12544193E-3,.56E-5,0
DMSP 5D-3 F18 (USA 210),2009-057A,2026-07-08T22:06:59.123232,14.14908712,.00108488,98.9050,170.6447,183.2334,176.8771,0,U,35951,999,86266,.133862E-3,.214E-5,0
PROBA-2,2009-059B,2026-07-08T23:21:50.500224,14.54871814,.00125733,98.2457,13.0249,208.5500,151.5010,0,U,36037,999,88469,.40703444E-4,.13E-5,0
YAOGAN-7,2009-069A,2026-07-08T14:48:32.591232,14.78031471,.00239353,98.0044,75.3492,333.3807,26.6172,0,U,36110,999,89279,.54067378E-4,.339E-5,0
XIWANG-1 (HOPE-1),2009-072B,2026-07-08T21:41:13.562016,13.16441648,.00073611,100.4034,143.3897,179.0293,181.0836,0,U,36122,999,79586,.92646503E-3,.309E-5,0
COSMOS 2463,2010-017A,2026-07-08T15:32:24.673056,13.71666932,.00375285,82.9586,233.9385,71.4742,46.7558,0,U,36519,999,81087,.21457749E-4,.35E-6,0
CARTOSAT-2B,2010-035A,2026-07-08T23:51:46.704384,14.78612133,.00124282,97.9941,240.4035,116.9337,243.3145,0,U,36795,999,86307,.23060338E-4,.117E-5,0
TISAT 1,2010-035E,2026-07-08T19:12:20.335968,15.32560746,.00040431,98.0702,138.2805,132.5191,227.6391,0,U,36799,999,87101,.4698152E-3,.14699E-3,0
YAOGAN-10,2010-038A,2026-07-08T23:31:19.176384,14.85417990,.00017132,97.8975,213.2103,85.1851,3.1034,0,U,36834,999,86044,.17384901E-3,.1444E-4,0
SHIJIAN-6 04B (SJ-6 04B),2010-051B,2026-07-08T23:30:24.676992,14.99380400,.00071293,97.8745,195.6213,232.9481,127.1090,0,U,37180,999,85894,.54089081E-4,.6E-5,0
FENGYUN 3B,2010-059A,2026-07-08T22:56:15.180000,14.14844564,.00230159,98.9609,236.0613,123.3966,359.2357,0,U,37214,999,81050,-.17934626E-3,-.392E-5,0
COSMO-SKYMED 4,2010-060A,2026-07-09T12:28:19.081920,14.82145819,.0001507,97.8890,13.7954,94.9762,265.1623,0,U,37216,999,84787,.39564E-4,.263E-5,0
O/OREOS (USA 219),2010-062C,2026-07-08T21:26:52.160928,14.93836067,.00136033,71.9709,31.1661,17.4668,342.6967,0,U,37224,999,11988,.12981425E-3,.1317E-4,0
RESOURCESAT-2,2011-015A,2026-07-08T21:47:04.547328,14.21604997,.001122,98.7634,257.1984,188.8952,171.2028,0,U,37387,999,78926,.26425816E-4,.14E-6,0
YOUTHSAT,2011-015B,2026-07-08T21:53:29.548320,14.25638877,.00131945,98.3697,162.9882,279.4033,134.7602,0,U,37388,999,79073,.64903394E-4,.112E-5,0
APRIZESAT 6,2011-044F,2026-07-08T12:12:33.497856,14.76950087,.00436006,98.2346,100.4423,19.5222,153.7283,0,U,37793,999,80029,.92503848E-4,.605E-5,0
JUGNU,2011-058B,2026-07-08T16:49:04.558080,14.13782288,.00183722,19.9588,177.7225,314.4820,202.9086,0,U,37839,999,76207,.6280831E-4,.387E-5,0
SRMSAT,2011-058D,2026-07-08T08:28:30.297216,14.11579975,.00118782,19.9723,291.3610,76.6616,325.6645,0,U,37841,999,76081,.50022429E-4,.357E-5,0
