CHUANGXIN 1-02 (CX-1-02)
1 33434U 08056B   26189.98587188 -.00000168  00000+0 -47824-4 0  9991
2 33434  98.6133 216.0346 0015496  77.4227 282.8687 14.30156924921733
STARS (KUKAI)           
1 33498U 09002G   26189.82575166  .00001744  00000+0  16141-3 0  9995
2 33498  98.1555 138.0201 0010152  96.6355 263.6020 14.95904662941717
KKS-1 (KISEKI)          
1 33499U 09002H   26189.91286104  .00000918  00000+0  11935-3 0  9995
2 33499  98.1179 112.6994 0006931 211.0976 148.9827 14.83179264939412
UK-DMC 2                
1 35683U 09041C   26189.91824898  .00000303  00000+0  51105-4 0  9995
2 35683  97.8862 324.3571 0001383 100.7718 259.3648 14.76088045909773
OCEANSAT-2              
1 35931U 09051A   26189.93130271 -.00000173  00000+0 -92494-4 0  9992
2 35931  98.2318 174.6120 0016925 171.6747 188.4704 13.99657180882370
SWISSCUBE               
1 35932U 09051B   26189.17253487  .00000734  00000+0  15442-3 0  9992
2 35932  98.4017  97.4251 0007478 138.1087 222.0687 14.62521876892227
BEESAT-1                
1 35933U 09051C   26189.67208954  .00000597  00000+0  12966-3 0  9992
2 35933  98.3944  97.5236 0005733 147.2714 212.8843 14.61755226892329
ITUPSAT1                
1 35935U 09051E   26189.54478970  .00000560  00000+0  12544-3 0  9999
2 35935  98.4027  96.5634 0007610 162.4704 197.6760 14.60472478891858
DMSP 5D-3 F18 (USA 210) 
1 35951U 09057A   26189.92151763  .00000214  00000+0  13386-3 0  9994
2 35951  98.9050 170.6447 0010848 183.2334 176.8771 14.14908712862662
PROBA-2                 
1 36037U 09059B   26189.97350116  .00000130  00000+0  40703-4 0  9991
2 36037  98.2457  13.0249 0012573 208.5500 151.5010 14.54871814884694
YAOGAN-7                
1 36110U 09069A   26189.61704388  .00000339  00000+0  54067-4 0  9998
2 36110  98.0044  75.3492 0023935 333.3807  26.6172 14.78031471892792
XIWANG-1 (HOPE-1)       
1 36122U 09072B   26189.90362919  .00000309  00000+0  92647-3 0  9999
2 36122 100.4034 143.3897 0007361 179.0293 181.0836 13.16441648795861
COSMOS 2463             
1 36519U 10017A   26189.64750779  .00000035  00000+0  21458-4 0  9995
2 36519  82.9586 233.9385 0037528  71.4742  46.7558 13.71666932810870
CARTOSAT-2B             
1 36795U 10035A   26189.99429056  .00000117  00000+0  23060-4 0  9992
2 36795  97.9941 240.4035 0012428 116.9337 243.3145 14.78612133863078
TISAT 1                 
1 36799U 10035E   26189.80023537  .00014699  00000+0  46982-3 0  9997
2 36799  98.0702 138.2805 0004043 132.5191 227.6391 15.32560746871018
YAOGAN-10               
1 36834U 10038A   26189.98008306  .00001444  00000+0  17385-3 0  9995
2 36834  97.8975 213.2103 0001713  85.1851   3.1034 14.85417990860444
SHIJIAN-6 04B (SJ-6 04B)
1 37180U 10051B   26189.97945228  .00000600  00000+0  54089-4 0  9993
2 37180  97.8745 195.6213 0007129 232.9481 127.1090 14.99380400858948
FENGYUN 3B              
1 37214U 10059A   26189.95573125 -.00000392  00000+0 -17935-3 0  9998
2 37214  98.9609 236.0613 0023015 123.3966 359.2357 14.14844564810501
COSMO-SKYMED 4          
1 37216U 10060A   26190.51966530  .00000263  00000+0  39564-4 0  9990
2 37216  97.8890  13.7954 0001507  94.9762 265.1623 14.82145819847873
O/OREOS (USA 219)       
1 37224U 10062C   26189.89365927  .00001317  00000+0  12981-3 0  9997
2 37224  71.9709  31.1661 0013603  17.4668 342.6967 14.93836067119887
RESOURCESAT-2           
1 37387U 11015A   26189.90769152  .00000014  00000+0  26426-4 0  9999
2 37387  98.7634 257.1984 0011220 188.8952 171.2028 14.21604997789266
YOUTHSAT                
1 37388U 11015B   26189.91214755  .00000112  00000+0  64903-4 0  9996
2 37388  98.3697 162.9882 0013194 279.4033 134.7602 14.25638877790735
APRIZESAT 6             
1 37793U 11044F   26189.50872104  .00000605  00000+0  92504-4 0  9996
2 37793  98.2346 100.4423 0043600  19.5222 153.7283 14.76950087800296
JUGNU                   
1 37839U 11058B   26189.70074720  .00000387  00000+0  62808-4 0  9993
2 37839  19.9588 177.7225 0018372 314.4820 202.9086 14.13782288762079
SRMSAT                  
1 37841U 11058D   26189.35312844  .00000357  00000+0  50022-4 0  9991
2 37841  19.9723 291.3610 0011878  76.6616 325.6645 14.11579975760817
